NORAD_CAT_ID,OBJECT_NAME,OBJECT_TYPE,EPOCH,MEAN_MOTION,ECCENTRICITY,INCLINATION,RA_OF_ASC_NODE,ARG_OF_PERICENTER,MEAN_ANOMALY,BSTAR,MEAN_MOTION_DOT,MEAN_MOTION_DDOT,TLE_LINE0,TLE_LINE1,TLE_LINE2,SEMIMAJOR_AXIS,PERIOD,APOGEE,PERIGEE,DECAYED
55916.0,STARLINK-5796,PAYLOAD,2024-01-02 13:44:59,14.98331607,0.0002986,69.9999,154.3981,266.993,93.0888,4.6172e-05,4.58e-06,0.0,0 STARLINK-5796,1 55916U 23037C   24002.57291491  .00000458  00000-0  46172-4 0  9998,2 55916  69.9999 154.3981 0002986 266.9930  93.0888 14.98331607 44084,6950.188,96.107,574.128,569.978,0.0
55916.0,STARLINK-5796,PAYLOAD,2024-01-02 20:09:30,14.9835254,0.0002823,69.9998,153.7247,267.5897,92.4939,0.00027642,3.209e-05,0.0,0 STARLINK-5796,1 55916U 23037C   24002.83993661  .00003209  00000-0  27642-3 0  9992,2 55916  69.9998 153.7247 0002823 267.5897  92.4939 14.98352540 44124,6950.123,96.106,573.95,570.026,0.0
55916.0,STARLINK-5796,PAYLOAD,2024-01-03 12:10:52,14.9832259,0.0003528,69.9996,152.041,281.1025,78.9738,-0.00010568,-1.354e-05,0.0,0 STARLINK-5796,1 55916U 23037C   24003.50755018 -.00001354  00000-0 -10568-3 0  9999,2 55916  69.9996 152.0410 0003528 281.1025  78.9738 14.98322590 44560,6950.216,96.107,574.533,569.629,0.0
55916.0,STARLINK-5796,PAYLOAD,2024-01-03 13:47:00,14.98321299,0.0003147,69.9996,151.8724,273.3763,86.7036,-0.00012783,-1.618e-05,0.0,0 STARLINK-5796,1 55916U 23037C   24003.57431104 -.00001618  00000-0 -12783-3 0  9997,2 55916  69.9996 151.8724 0003147 273.3763  86.7036 14.98321299 44231,6950.22,96.108,574.272,569.898,0.0
55916.0,STARLINK-5796,PAYLOAD,2024-01-03 20:11:32,14.98320849,0.000305,69.9998,151.1993,271.4509,88.6301,-0.00012868,-1.628e-05,0.0,0 STARLINK-5796,1 55916U 23037C   24003.84135220 -.00001628  00000-0 -12868-3 0  9992,2 55916  69.9998 151.1993 0003050 271.4509  88.6301 14.98320849 44274,6950.221,96.108,574.206,569.966,0.0
55916.0,STARLINK-5796,PAYLOAD,2024-01-04 12:12:53,14.98318108,0.000316,69.9995,149.5155,273.4825,86.5972,-0.00015974,-1.998e-05,0.0,0 STARLINK-5796,1 55916U 23037C   24004.50895713 -.00001998  00000-0 -15974-3 0  9997,2 55916  69.9995 149.5155 0003160 273.4825  86.5972 14.98318108 44712,6950.23,96.108,574.291,569.898,0.0
55916.0,STARLINK-5796,PAYLOAD,2024-01-04 13:49:01,14.98317834,0.000313,69.9996,149.3473,272.6539,87.4262,-0.00015216,-1.908e-05,0.0,0 STARLINK-5796,1 55916U 23037C   24004.57571730 -.00001908  00000-0 -15216-3 0  9994,2 55916  69.9996 149.3473 0003130 272.6539  87.4262 14.98317834 44384,6950.231,96.108,574.271,569.92,0.0
55916.0,STARLINK-5796,PAYLOAD,2024-01-04 20:13:34,14.98321401,0.000296,70.0,148.6748,269.8485,90.2334,-0.00011629,-1.48e-05,0.0,0 STARLINK-5796,1 55916U 23037C   24004.84275551 -.00001480  00000-0 -11629-3 0  9995,2 55916  70.0000 148.6748 0002960 269.8485  90.2334 14.98321401 44420,6950.219,96.108,574.142,570.027,0.0
55916.0,STARLINK-5796,PAYLOAD,2024-01-05 12:14:54,14.98321184,0.000306,70.0001,146.9925,269.1092,90.9716,-2.4786e-05,-3.89e-06,0.0,0 STARLINK-5796,1 55916U 23037C   24005.51035133 -.00000389  00000-0 -24786-4 0  9996,2 55916  70.0001 146.9925 0003060 269.1092  90.9716 14.98321184 44865,6950.22,96.108,574.212,569.958,0.0
55916.0,STARLINK-5796,PAYLOAD,2024-01-05 13:51:02,14.98309993,0.0003031,70.0002,146.8242,268.2951,91.7861,0.000171,1.947e-05,0.0,0 STARLINK-5796,1 55916U 23037C   24005.57711371  .00001947  00000-0  17100-3 0  9997,2 55916  70.0002 146.8242 0003031 268.2951  91.7861 14.98309993 44537,6950.255,96.108,574.226,570.013,0.0
55916.0,STARLINK-5796,PAYLOAD,2024-01-05 18:39:26,14.98314156,0.0003007,70.0002,146.319,269.4641,90.6173,0.00013198,1.481e-05,0.0,0 STARLINK-5796,1 55916U 23037C   24005.77739473  .00001481  00000-0  13198-3 0  9998,2 55916  70.0002 146.3190 0003007 269.4641  90.6173 14.98314156 44560,6950.242,96.108,574.197,570.017,0.0
55916.0,STARLINK-5796,PAYLOAD,2024-01-06 12:16:55,14.98322791,0.0003174,70.0,144.4676,269.0181,91.0615,0.00013512,1.519e-05,0.0,0 STARLINK-5796,1 55916U 23037C   24006.51175511  .00001519  00000-0  13512-3 0  9990,2 55916  70.0000 144.4676 0003174 269.0181  91.0615 14.98322791 45017,6950.215,96.107,574.286,569.874,0.0
55916.0,STARLINK-5796,PAYLOAD,2024-01-06 18:41:27,14.98326748,0.0003139,70.0001,143.7946,269.0984,90.9815,0.00017224,1.963e-05,0.0,0 STARLINK-5796,1 55916U 23037C   24006.77879304  .00001963  00000-0  17224-3 0  9996,2 55916  70.0001 143.7946 0003139 269.0984  90.9815 14.98326748 44714,6950.203,96.107,574.25,569.886,0.0
55916.0,STARLINK-5796,PAYLOAD,2024-01-07 12:18:56,14.98326712,0.0003061,70.0003,141.9435,268.5096,91.5712,8.2334e-05,8.89e-06,0.0,0 STARLINK-5796,1 55916U 23037C   24007.51315772  .00000889  00000-0  82334-4 0  9994,2 55916  70.0003 141.9435 0003061 268.5096  91.5712 14.98326712 45165,6950.203,96.107,574.196,569.941,0.0
55916.0,STARLINK-5796,PAYLOAD,2024-01-07 18:43:28,14.98329733,0.0003034,70.0004,141.2706,267.8646,92.2166,0.00011229,1.247e-05,0.0,0 STARLINK-5796,1 55916U 23037C   24007.78019575  .00001247  00000-0  11229-3 0  9998,2 55916  70.0004 141.2706 0003034 267.8646  92.2166 14.98329733 44866,6950.194,96.107,574.167,569.95,0.0
55916.0,STARLINK-5796,PAYLOAD,2024-01-08 13:57:05,14.98334211,0.0003022,70.0004,139.2507,267.123,92.9584,4.954e-05,4.98e-06,0.0,0 STARLINK-5796,1 55916U 23037C   24008.58131351  .00000498  00000-0  49540-4 0  9999,2 55916  70.0004 139.2507 0003022 267.1230  92.9584 14.98334211 44982,6950.18,96.107,574.145,569.945,0.0
55916.0,STARLINK-5796,PAYLOAD,2024-01-08 18:45:29,14.98335324,0.0003022,70.0005,138.746,266.9964,93.085,5.8818e-05,6.09e-06,0.0,0 STARLINK-5796,1 55916U 23037C   24008.78159208  .00000609  00000-0  58818-4 0  9994,2 55916  70.0005 138.7460 0003022 266.9964  93.0850 14.98335324 45352,6950.176,96.107,574.142,569.941,0.0
55916.0,STARLINK-5796,PAYLOAD,2024-01-09 10:46:50,14.98324558,0.0002862,70.001,137.0625,263.7643,96.319,-2.649e-05,-4.09e-06,0.0,0 STARLINK-5796,1 55916U 23037C   24009.44920132 -.00000409  00000-0 -26490-4 0  9991,2 55916  70.0010 137.0625 0002862 263.7643  96.3190 14.98324558 45454,6950.21,96.107,574.064,570.086,0.0
55916.0,STARLINK-5796,PAYLOAD,2024-01-09 13:59:07,14.98324074,0.0002877,70.0009,136.7259,263.0212,97.062,-3.4068e-05,-4.99e-06,0.0,0 STARLINK-5796,1 55916U 23037C   24009.58272224 -.00000499  00000-0 -34068-4 0  9997,2 55916  70.0009 136.7259 0002877 263.0212  97.0620 14.98324074 45136,6950.211,96.107,574.076,570.077,0.0
55916.0,STARLINK-5796,PAYLOAD,2024-01-09 18:47:31,14.98327405,0.0002823,70.0009,136.2204,262.5774,97.5064,7.2376e-06,-7e-08,0.0,0 STARLINK-5796,1 55916U 23037C   24009.78299941 -.00000007  00000-0  72376-5 0  9993,2 55916  70.0009 136.2204 0002823 262.5774  97.5064 14.98327405 45160,6950.201,96.107,574.028,570.104,0.0
55916.0,STARLINK-5796,PAYLOAD,2024-01-10 10:48:51,14.98334544,0.0002834,70.0008,134.5372,263.9093,96.1743,6.0292e-05,6.27e-06,0.0,0 STARLINK-5796,1 55916U 23037C   24010.45059290  .00000627  00000-0  60292-4 0  9990,2 55916  70.0008 134.5372 0002834 263.9093  96.1743 14.98334544 45607,6950.179,96.107,574.014,570.074,0.0
55916.0,STARLINK-5796,PAYLOAD,2024-01-11 12:27:00,14.98325754,0.000273,70.001,131.8439,257.2765,102.8089,8.4006e-05,9.09e-06,0.0,0 STARLINK-5796,1 55916U 23037C   24011.51875751  .00000909  00000-0  84006-4 0  9998,2 55916  70.0010 131.8439 0002730 257.2765 102.8089 14.98325754 45769,6950.206,96.107,573.968,570.174,0.0
55916.0,STARLINK-5796,PAYLOAD,2024-01-11 14:03:08,14.98328135,0.0002805,70.0003,131.6749,257.2168,102.8678,9.1481e-05,9.99e-06,0.0,0 STARLINK-5796,1 55916U 23037C   24011.58551546  .00000999  00000-0  91481-4 0  9992,2 55916  70.0003 131.6749 0002805 257.2168 102.8678 14.98328135 45437,6950.199,96.107,574.013,570.114,0.0
55916.0,STARLINK-5796,PAYLOAD,2024-01-11 17:15:24,14.98327891,0.0002888,70.0004,131.3386,261.6005,98.4827,8.1245e-05,8.76e-06,0.0,0 STARLINK-5796,1 55916U 23037C   24011.71903638  .00000876  00000-0  81245-4 0  9991,2 55916  70.0004 131.3386 0002888 261.6005  98.4827 14.98327891 45458,6950.199,96.107,574.072,570.057,0.0
55916.0,STARLINK-5796,PAYLOAD,2024-01-12 12:29:01,14.98332816,0.0002881,70.0004,129.32,263.0597,97.0235,-1.4036e-05,-2.6e-06,0.0,0 STARLINK-5796,1 55916U 23037C   24012.52015561 -.00000260  00000-0 -14036-4 0  9993,2 55916  70.0004 129.3200 0002881 263.0597  97.0235 14.98332816 45579,6950.184,96.107,574.052,570.047,0.0
55916.0,STARLINK-5796,PAYLOAD,2024-01-12 17:17:25,14.98334392,0.000283,70.0004,128.8151,261.9438,98.14,3.1498e-06,-5.5e-07,0.0,0 STARLINK-5796,1 55916U 23037C   24012.72043379 -.00000055  00000-0  31498-5 0  9996,2 55916  70.0004 128.8151 0002830 261.9438  98.1400 14.98334392 45941,6950.179,96.107,574.011,570.077,0.0
55916.0,STARLINK-5796,PAYLOAD,2024-01-13 14:07:10,14.98329733,0.0002722,70.0007,126.6268,260.7354,99.3497,7.9896e-05,8.6e-06,0.0,0 STARLINK-5796,1 55916U 23037C   24013.58831535  .00000860  00000-0  79896-4 0  9996,2 55916  70.0007 126.6268 0002722 260.7354  99.3497 14.98329733 45732,6950.194,96.107,573.951,570.167,0.0
55916.0,STARLINK-5796,PAYLOAD,2024-01-13 17:19:26,14.98332462,0.0002819,70.0005,126.2892,267.6356,92.448,0.00014704,1.662e-05,0.0,0 STARLINK-5796,1 55916U 23037C   24013.72183236  .00001662  00000-0  14704-3 0  9997,2 55916  70.0005 126.2892 0002819 267.6356  92.4480 14.98332462 46093,6950.185,96.107,574.01,570.091,0.0
55916.0,STARLINK-5796,PAYLOAD,2024-01-14 14:09:11,14.98332759,0.000274,70.0005,124.1008,269.3826,90.7019,7.7433e-05,8.31e-06,0.0,0 STARLINK-5796,1 55916U 23037C   24014.58971300  .00000831  00000-0  77433-4 0  9995,2 55916  70.0005 124.1008 0002740 269.3826  90.7019 14.98332759 45887,6950.184,96.107,573.954,570.145,0.0
55916.0,STARLINK-5796,PAYLOAD,2024-01-14 17:21:27,14.98320616,0.0002354,70.0007,123.7647,265.5006,94.5884,0.00039911,4.671e-05,0.0,0 STARLINK-5796,1 55916U 23037C   24014.72323493  .00004671  00000-0  39911-3 0  9999,2 55916  70.0007 123.7647 0002354 265.5006  94.5884 14.98320616 46244,6950.222,96.108,573.723,570.451,0.0
